IRIDIUM 57 [-]          
1 25273U 98019B   24069.44396359  .00000556  00000+0  18814-3 0  9990
2 25273  86.4010 339.9057 0002148  86.4153 273.7289 14.35112485358118
IRIDIUM 63 [-]          
1 25286U 98021B   24069.85344874  .00000494  00000+0  16475-3 0  9999
2 25286  86.3931 276.6369 0002020  83.4021 276.7405 14.35629583357200
IRIDIUM 69 [-]          
1 25319U 98026A   24069.86502911  .00000575  00000+0  17700-3 0  9992
2 25319  86.3945 291.3271 0004272 100.9986 259.1693 14.39823772356229
IRIDIUM 71 [-]          
1 25320U 98026B   24069.88711093  .00000592  00000+0  18117-3 0  9991
2 25320  86.3932 286.0975 0002975 133.1792 226.9656 14.40149658356744
IRIDIUM 73 [-]          
1 25344U 98032C   24069.47579709  .00000988  00000+0  24843-3 0  9997
2 25344  86.4386 243.8204 0002695  97.0287 263.1225 14.50334129363176
IRIDIUM 82 [-]          
1 25467U 98051A   24069.45323931  .00012822  00000+0  68936-3 0  9997
2 25467  86.3898 332.9620 0133960 226.0550 132.9574 15.07247798353456
IRIDIUM 2 [-]           
1 25527U 98066A   24069.54014718  .00081718  00000+0  10550-2 0  9998
2 25527  85.5158   7.3409 0005603  64.3418 295.8423 15.58671531391781
